2022-057AM              
1 52767U 22057AM  22163.53722568  .00009102  00000+0  51298-3 0  9994
2 52767  97.5145 278.3176 0013818 162.4551 197.7160 15.13339766  2691
2022-057AN              
1 52768U 22057AN  22163.53696426  .00007348  00000+0  41483-3 0  9993
2 52768  97.5144 278.3179 0013943 161.9677 198.2052 15.13349142  2691
LEMUR-2-MIMI1307        
1 52769U 22057AP  22163.53640354  .00003821  00000+0  21723-3 0  9990
2 52769  97.5263 278.3487 0015013 166.9064 193.2560 15.13394982  2692
2022-057AQ              
1 52770U 22057AQ  22163.53643908  .00003212  00000+0  18353-3 0  9999
2 52770  97.5149 278.3203 0013826 156.3648 203.8221 15.13338447  2690
OMNI-L2                 
1 52771U 22057AR  22163.53479728  .00005159  00000+0  29105-3 0  9996
2 52771  97.5188 278.3315 0014743 158.8176 201.3669 15.13506687  2692
2022-057AS              
1 52772U 22057AS  22163.53379429  .00003829  00000+0  21658-3 0  9991
2 52772  97.5165 278.3274 0015159 157.3639 202.8264 15.13574414  2692
2022-057AT              
1 52773U 22057AT  22163.54067559  .00010114  00000+0  57348-3 0  9991
2 52773  97.5216 278.3375 0012908 173.0963 187.0448 15.13102203  2697
2022-058A               
1 52785U 22058A   22163.56379199  .00000926  00000+0  13005-3 0  9995
2 52785  49.9981 212.3398 0012077 323.7864  36.2251 14.86375203  1556
2022-058B               
1 52786U 22058B   22163.56297110  .00000880  00000+0  12456-3 0  9996
2 52786  50.0030 212.3406 0012001 327.1931  32.8259 14.86493057  1531
2022-058C               
1 52787U 22058C   22163.56243629  .00000996  00000+0  13720-3 0  9996
2 52787  49.9928 212.3282 0012648 327.1164  32.8983 14.86569344  1539
2022-058D               
1 52788U 22058D   22163.62862034  .00000926  00000+0  12906-3 0  9999
2 52788  50.0080 212.0209 0012892 329.9472  30.0735 14.86717559  1540
2022-058E               
1 52789U 22058E   22163.56048671  .00000917  00000+0  12759-3 0  9992
2 52789  49.9906 212.3143 0013887 330.5123  29.5022 14.86847067  1530
2022-058F               
1 52790U 22058F   22163.49145596  .00000911  00000+0  12625-3 0  9996
2 52790  50.0089 212.6303 0014113 335.2959  24.7298 14.87111081  1522
2022-058G               
1 52791U 22058G   22163.55766210  .00000938  00000+0  12879-3 0  9996
2 52791  49.9919 212.2968 0015101 335.9148  24.1087 14.87251604  1537
2022-058H               
1 52792U 22058H   22163.55619492  .00001029  00000+0  13810-3 0  9994
2 52792  49.9966 212.2921 0016049 337.8243  22.2000 14.87462577  1535
2022-058J               
1 52793U 22058J   22163.55531661  .00000982  00000+0  13260-3 0  9992
2 52793  50.0015 212.2903 0016180 340.0793  19.9515 14.87588801  1562
CZ-2C R/B               
1 52794U 22058K   22163.39651500  .00000676  00000+0  53654-4 0  9992
2 52794  50.1752 211.7557 0103812  80.4351 280.8301 15.10756226  1528
PROGRESS-MS 20          
1 52795U 22059A   22163.54638861  .00005379  00000+0  10229-3 0  9991
2 52795  51.6448 359.5735 0004347 227.8455 161.8059 15.49964298344464
SHENZHOU 14             
1 52797U 22060A   22163.41175001  .00013203  00000+0  16198-3 0  9999
2 52797  41.4719 247.9677 0004964 260.4987 195.2110 15.60076591 64020
CZ-2F R/B               
1 52798U 22060B   22163.49922304  .00797300  76099-5  42479-3 0  9999
2 52798  41.4698 244.3132 0080440 180.9913 179.0855 16.11449604  1193
2022-060C               
1 52799U 22060C   22158.63088778  .13393469  67337-5  55675-2 0  9996
2 52799  41.3128 276.8905 0142897 134.7881 263.1502 16.02431565   409
2022-060D               
1 52800U 22060D   22159.64835821  .08579681  72702-5  28536-2 0  9994
2 52800  41.3762 270.3417 0116427 139.3137 314.9335 16.09928926   563
2022-060E               
1 52801U 22060E   22159.51823971 -.00002422  76598-5  00000+0 0  9991
2 52801  41.4611 271.4403 0051726 128.0561 288.5231 16.09241380   531
2022-060F               
1 52802U 22060F   22159.69096869  .01641942  75456-5  11327-2 0  9994
2 52802  41.4702 269.1814 0095350 150.1676  87.4086 16.05869837   619
NILESAT 301             
1 52817U 22061A   22162.75107655 -.00000120  00000+0  00000+0 0  9995
2 52817   7.2839  45.9158 5247558 179.1061 183.2139  1.40516746    53
FALCON 9 R/B            
1 52818U 22061B   22163.85815134  .00029576  00000+0  36703-1 0  9992
2 52818  18.6834  44.1727 7692812 180.9744 347.9610  1.75903183    62
NOAA 1 [-]              
1 04793U 70106A   22163.44554691 -.00000028  00000+0  10079-3 0  9999
2 04793 101.5563 227.3796 0031199 332.8138  38.6038 12.54005418356960
NOAA 2 (ITOS-D) [-]     
1 06235U 72082A   22163.52430250 -.00000022  00000+0  14931-3 0  9995
2 06235 101.9520 145.7270 0004538  83.7002  29.0257 12.53147776271358
NOAA 3 [-]              
1 06920U 73086A   22163.55815309 -.00000050  00000+0 -27210-4 0  9993
2 06920 102.2060 145.0766 0006179 303.3097 170.9143 12.40348058200188
NOAA 4 [-]              
1 07529U 74089A   22163.58282435 -.00000022  00000+0  14955-3 0  9993
2 07529 101.9123 143.2052 0009396 111.5967 357.9927 12.53157997175932
NOAA 5 [-]              
1 09057U 76077A   22163.56044986 -.00000023  00000+0  16845-3 0  9996
2 09057 102.0973 131.6008 0009975 145.1710 333.8612 12.37771139 73134
TIROS N [-]             
1 11060U 78096A   22163.55010480  .00000096  00000+0  67276-4 0  9991
2 11060  98.6356 217.4239 0011216 152.3269 207.8506 14.18389434470918
NOAA 6 [-]              
1 11416U 79057A   22163.51766235  .00000142  00000+0  67275-4 0  9997
2 11416  98.6636 174.3655 0009063 274.1547  85.8601 14.33759627240812
NOAA 7 [-]              
1 12553U 81059A   22163.35960442  .00000016  00000+0  30605-4 0  9990
2 12553  98.9991 207.7132 0012387 127.4861 232.7442 14.17332311117071
NOAA 8 [-]              
1 13923U 83022A   22163.52452947  .00000067  00000+0  44131-4 0  9994
2 13923  98.6861 154.0877 0014259 220.7176 139.2940 14.28809073 41708
NOAA 9 [-]              
1 15427U 84123A   22163.51548015  .00000040  00000+0  43360-4 0  9993
2 15427  99.0448 135.8225 0014823 175.3419 295.2799 14.16202214935912
NOAA 10 [-]             
1 16969U 86073A   22163.55744605  .00000061  00000+0  42009-4 0  9990
2 16969  98.5672 149.8024 0011642 332.5700 137.0758 14.28201057860131
NOAA 11 [-]             
1 19531U 88089A   22163.53519720  .00000006  00000+0  23758-4 0  9992
2 19531  98.4235 152.8879 0010921 186.7237 173.3793 14.15310478740120
NOAA 12 [-]             
1 21263U 91032A   22163.51050685  .00000038  00000+0  33851-4 0  9997
2 21263  98.5133 163.4721 0013603 359.2911   0.8247 14.25994203616027
NOAA 13 [-]             
1 22739U 93050A   22163.55994024  .00000025  00000+0  35449-4 0  9997
2 22739  98.5038 143.6046 0009616   5.1715 354.9556 14.12843131486365
NOAA 14 [-]             
1 23455U 94089A   22163.53148796  .00000018  00000+0  30767-4 0  9991
2 23455  98.4477 190.4996 0009081 346.0675  14.0247 14.14197791416011
NOAA 15 [B]             
1 25338U 98030A   22163.50872453  .00000162  00000+0  86010-4 0  9996
2 25338  98.6439 193.1090 0009435 317.0084  43.0358 14.26136889252313
NOAA 16 [-]             
1 26536U 00055A   22163.51241476  .00000044  00000+0  45865-4 0  9995
2 26536  98.6365 222.5844 0010678 173.6465 186.4845 14.13329095416657
NOAA 17 [-]             
1 27453U 02032A   22163.51805585  .00000027  00000+0  30230-4 0  9999
2 27453  98.6717 108.8355 0010734 288.6977  71.3037 14.25122203 38153
NOAA 18 [B]             
1 28654U 05018A   22163.46102519  .00000142  00000+0  10042-3 0  9997
2 28654  98.9490 233.9009 0013853 350.2420   9.8481 14.12740344879271
NOAA 19 [+]             
1 33591U 09005A   22163.53254676  .00000161  00000+0  11229-3 0  9992
2 33591  99.1478 197.5661 0013622 197.6848 162.3850 14.12575316687497
SUOMI NPP [+]           
1 37849U 11061A   22163.56969564  .00000020  00000+0  30485-4 0  9999
2 37849  98.7328 102.1893 0001083  81.9777  91.3639 14.19527830550499
NOAA 20 [+]             
1 43013U 17073A   22163.50106814  .00000028  00000+0  34152-4 0  9996
2 43013  98.7167 102.1324 0001612  84.1027 276.0333 14.19556596236529
CELESTIS-02             
1 25160U 98007D   22163.53439994 -.00000028  00000+0  45208-4 0  9991
2 25160 107.9808 256.8469 0061185 119.5078 252.5408 14.21626921262168
CELESTIS-03             
1 26034U 99070C   22163.50042844  .00013852  00000+0  67009-3 0  9994
2 26034  98.3108 168.9701 0011947 137.9601 222.2550 15.18674447220321
O3B FM5                 
1 39188U 13031A   22163.47102680 -.00000011  00000+0  00000+0 0  9990
2 39188   0.0454  28.0528 0002214  85.6213 246.3512  4.99968243163707
O3B FM4                 
1 39189U 13031B   22163.12237801 -.00000010  00000+0  00000+0 0  9996
2 39189   0.0593   1.3328 0001919 122.0855 236.6023  4.99927540163718
O3B FM2                 
1 39190U 13031C   22162.57391346 -.00000010  00000+0  00000+0 0  9991
2 39190   0.0637 358.7703 0003000 310.5424  50.6632  5.00116061163748
O3B PFM                 
1 39191U 13031D   22163.25392351 -.00000010  00000+0  00000+0 0  9995
2 39191   0.0472  17.1941 0002663  65.2928 277.5455  5.00115637163339
O3B FM3                 
1 40079U 14038A   22162.90885751 -.00000010  00000+0  00000+0 0  9992
2 40079   0.0549   7.7094 0005041  79.8376 272.5131  5.00115340139695
O3B FM7                 
1 40080U 14038B   22162.45515030 -.00000010  00000+0  00000+0 0  9994
2 40080   0.0594   7.4708 0000760  69.4046 283.1355  5.00115332144501
O3B FM6                 
1 40081U 14038C   22163.28108693 -.00000011  00000+0  00000+0 0  9991
2 40081   0.0548   6.6161 0002684  76.2302 277.1865  5.00115366144497
O3B FM8                 
1 40082U 14038D   22163.33505926 -.00000011  00000+0  00000+0 0  9998
2 40082   0.0559   3.5238 0002743  76.1688 280.3406  5.00115528144614
O3B FM10                
1 40348U 14083A   22163.36101711 -.00000011  00000+0  00000+0 0  9990
2 40348   0.0466  10.9057 0002644  70.6327 278.4937  5.00115033136569
